TIANMU-1 21             
1 58662U 23208C   26155.79634315  .00010803  00000+0  32180-3 0  9997
2 58662  97.4497 275.2854 0007015  13.1205 347.0219 15.34847834135661
TIANMU-1 22             
1 58663U 23208D   26155.85039612  .00008821  00000+0  29811-3 0  9998
2 58663  97.4492 272.0362 0004348  44.2677 315.8911 15.30878752135447
TIANMU-1 15             
1 58700U 24004A   26155.84421939  .00006721  00000+0  25708-3 0  9999
2 58700  97.4670 342.0331 0007862  43.0170 317.1682 15.26890552133894
TIANMU-1 16             
1 58701U 24004B   26155.83123293  .00006498  00000+0  25073-3 0  9997
2 58701  97.4617 341.2710 0006956  47.4840 312.6985 15.26616092133894
TIANMU-1 17             
1 58702U 24004C   26155.88222794  .00006643  00000+0  25629-3 0  9998
2 58702  97.4645 341.8024 0006612  52.5575 307.6264 15.26616632133895
TIANMU-1 18             
1 58703U 24004D   26155.86069593  .00006824  00000+0  26119-3 0  9999
2 58703  97.4662 342.0285 0005117  51.5207 308.6490 15.26875875133895
INSAT-3DS               
1 58990U 24033A   26155.08219668 -.00000144  00000+0  00000+0 0  9990
2 58990   0.0157 244.9243 0001651 180.6260 298.6386  1.00271078 46930
METEOR-M2 4             
1 59051U 24039A   26155.87357094  .00000024  00000+0  30293-4 0  9996
2 59051  98.7006 115.3268 0006562 196.8514 163.2447 14.22428250117513
GOES 19                 
1 60133U 24119A   26155.17683514 -.00000236  00000+0  00000+0 0  9994
2 60133   0.0458 135.8547 0000675 354.6462 110.6014  1.00271705  6836
MTG-S1                  
1 64723U 25143A   26155.20790095 -.00000020  00000+0  00000+0 0  9999
2 64723   0.6149 336.1165 0001211  38.2217 309.6895  1.00271575  3288
METOP-SGA1              
1 65159U 25172A   26155.11705584  .00000067  00000+0  50486-4 0  9992
2 65159  98.6648 215.0827 0001000  84.9916 275.1375 14.21507560 41930
FENGYUN 3H              
1 65815U 25219A   26154.44106509  .00000081  00000+0  58743-4 0  9990
2 65815  98.6765  95.4778 0001637  88.4136 271.7228 14.19917857 35431
