OBJECT_NAME,OBJECT_ID,EPOCH,MEAN_MOTION,ECCENTRICITY,INCLINATION,RA_OF_ASC_NODE,ARG_OF_PERICENTER,MEAN_ANOMALY,EPHEMERIS_TYPE,CLASSIFICATION_TYPE,NORAD_CAT_ID,ELEMENT_SET_NO,REV_AT_EPOCH,BSTAR,MEAN_MOTION_DOT,MEAN_MOTION_DDOT
TIANMU-1 21,2023-208C,2026-06-04T19:06:44.048160,15.34847834,.0007015,97.4497,275.2854,13.1205,347.0219,0,U,58662,999,13566,.3218E-3,.10803E-3,0
TIANMU-1 22,2023-208D,2026-06-04T20:24:34.224768,15.30878752,.0004348,97.4492,272.0362,44.2677,315.8911,0,U,58663,999,13544,.29811E-3,.8821E-4,0
TIANMU-1 15,2024-004A,2026-06-04T20:15:40.555296,15.26890552,.0007862,97.4670,342.0331,43.0170,317.1682,0,U,58700,999,13389,.25708E-3,.6721E-4,0
TIANMU-1 16,2024-004B,2026-06-04T19:56:58.525152,15.26616092,.0006956,97.4617,341.2710,47.4840,312.6985,0,U,58701,999,13389,.25073E-3,.6498E-4,0
TIANMU-1 17,2024-004C,2026-06-04T21:10:24.494016,15.26616632,.0006612,97.4645,341.8024,52.5575,307.6264,0,U,58702,999,13389,.25629E-3,.6643E-4,0
TIANMU-1 18,2024-004D,2026-06-04T20:39:24.128352,15.26875875,.0005117,97.4662,342.0285,51.5207,308.6490,0,U,58703,999,13389,.26119E-3,.6824E-4,0
INSAT-3DS,2024-033A,2026-06-04T01:58:21.793152,1.00271078,.0001651,0.0157,244.9243,180.6260,298.6386,0,U,58990,999,4693,0,-.144E-5,0
METEOR-M2 4,2024-039A,2026-06-04T20:57:56.529216,14.22428250,.0006562,98.7006,115.3268,196.8514,163.2447,0,U,59051,999,11751,.30293E-4,.24E-6,0
GOES 19,2024-119A,2026-06-04T04:14:38.556096,1.00271705,.00006751,0.0458,135.8547,354.6462,110.6014,0,U,60133,999,683,0,-.236E-5,0
MTG-S1,2025-143A,2026-06-04T04:59:22.642080,1.00271575,.0001211,0.6149,336.1165,38.2217,309.6895,0,U,64723,999,328,0,-.2E-6,0
METOP-SGA1,2025-172A,2026-06-04T02:48:33.624576,14.21507560,.00010003,98.6648,215.0827,84.9916,275.1375,0,U,65159,999,4193,.50485553E-4,.67E-6,0
FENGYUN 3H,2025-219A,2026-06-03T10:35:08.023776,14.19917857,.00016378,98.6765,95.4778,88.4136,271.7228,0,U,65815,999,3543,.58743444E-4,.81E-6,0
